[{"OBJECT_NAME":"TRANSPORTER-10 OBJECT AG","OBJECT_ID":"2024-043AG","EPOCH":"2026-03-09T22:12:45.387648","MEAN_MOTION":15.30759727,"ECCENTRICITY":0.00093005,"INCLINATION":97.5471,"RA_OF_ASC_NODE":205.7101,"ARG_OF_PERICENTER":226.5958,"MEAN_ANOMALY":133.4509,"EPHEMERIS_TYPE":0,"CLASSIFICATION_TYPE":"U","NORAD_CAT_ID":59128,"ELEMENT_SET_NO":999,"REV_AT_EPOCH":11192,"BSTAR":0.00032170115,"MEAN_MOTION_DOT":9.498e-5,"MEAN_MOTION_DDOT":0},{"OBJECT_NAME":"STARLINK-32362","OBJECT_ID":"2024-202A","EPOCH":"2026-03-09T11:14:30.829632","MEAN_MOTION":15.2757314,"ECCENTRICITY":1.947e-5,"INCLINATION":42.9981,"RA_OF_ASC_NODE":228.0081,"ARG_OF_PERICENTER":261.9955,"MEAN_ANOMALY":98.0874,"EPHEMERIS_TYPE":0,"CLASSIFICATION_TYPE":"U","NORAD_CAT_ID":61845,"ELEMENT_SET_NO":999,"REV_AT_EPOCH":7601,"BSTAR":-1.2280854e-5,"MEAN_MOTION_DOT":-5.99e-6,"MEAN_MOTION_DDOT":0}]
